*******************************************************************************
JPL/HORIZONS                213 Lilaea (A880 DA)           2020-Jun-22 08:40:43
Rec #:     213 (+COV) Soln.date: 2020-Feb-22_15:21:08   # obs: 2868 (1880-2020)
 
IAU76/J2000 helio. ecliptic osc. elements (au, days, deg., period=Julian yrs):
 
  EPOCH=  2455838.5 ! 2011-Oct-04.00 (TDB)         Residual RMS= .34656
   EC= .1462184349821373   QR= 2.348922229379744   TP= 2455011.790970908
   OM= 122.1263821223132   W=  162.8622006620833   IN= 6.803310392149205
   A= 2.751198111580917    MA= 178.555798292979    ADIST= 3.153473993782091
   PER= 4.56343            N= .215983843           ANGMOM= .028226008
   DAN= 3.12968            DDN= 2.3623             L= 285.1022553
   B= 2.0004354            MOID= 1.33275998        TP= 2009-Jun-29.2909709080
 
Asteroid physical parameters (km, seconds, rotational period in hours):
   GM= n.a.                RAD= 41.048             ROTPER= 12.042
   H= 8.9                  G= .150                 B-V= .650
                           ALBEDO= .092            STYP= B
 
ASTEROID comments: 
1: soln ref.= JPL#106, OCC=0
2: source=ORB
*******************************************************************************
 
 
*******************************************************************************
Ephemeris / WWW_USER Mon Jun 22 08:40:43 2020 Pasadena, USA      / Horizons
*******************************************************************************
Target body name: 213 Lilaea (A880 DA)            {source: JPL#106}
Center body name: Solar System Barycenter (0)     {source: DE431}
Center-site name: BODY CENTER
*******************************************************************************
Start time      : A.D. 1969-Jun-28 00:00:00.0000 TDB
Stop  time      : A.D. 2071-May-04 00:00:00.0000 TDB
Step-size       : 7200 minutes
*******************************************************************************
Center geodetic : 0.00000000,0.00000000,0.0000000 {E-lon(deg),Lat(deg),Alt(km)}
Center cylindric: 0.00000000,0.00000000,0.0000000 {E-lon(deg),Dxy(km),Dz(km)}
Center radii    : (undefined)                                                  
Small perturbers: Yes                             {source: SB431-N16}
Output units    : AU-D
Output type     : GEOMETRIC cartesian states
Output format   : 2 (position and velocity)
Reference frame : Ecliptic of J2000.0
*******************************************************************************
Initial IAU76/J2000 heliocentric ecliptic osculating elements (au, days, deg.):
  EPOCH=  2455838.5 ! 2011-Oct-04.00 (TDB)         Residual RMS= .34656        
   EC= .1462184349821373   QR= 2.348922229379744   TP= 2455011.790970908       
   OM= 122.1263821223132   W=  162.8622006620833   IN= 6.803310392149205       
  Equivalent ICRF heliocentric equatorial cartesian coordinates (au, au/d):
   X=-7.634710964567175E-01  Y= 2.851514872493202E+00  Z= 1.108945266498740E+00
  VX=-8.645226364545089E-03 VY=-2.318120259134609E-03 VZ= 9.153966484109076E-05
Asteroid physical parameters (km, seconds, rotational period in hours):        
   GM= n.a.                RAD= 41.048             ROTPER= 12.042              
   H= 8.9                  G= .150                 B-V= .650                   
                           ALBEDO= .092            STYP= B                     
*******************************************************************************
            JDTDB,            Calendar Date (TDB),        delta-T,                      X,                      Y,                      Z,                     VX,                     VY,                     VZ,
******************************************************************************************************************************************************************************************************************
$$SOE
2447680.500000000, A.D. 1989-Jun-03 00:00:00.0000,      56.184853, -2.143289925101422E+00,  2.224048963937177E+00,  7.408313731064518E-02, -5.992254462705305E-03, -6.859817428700894E-03,  1.041831665086758E-03,
2447685.500000000, A.D. 1989-Jun-08 00:00:00.0000,      56.184732, -2.172980459349449E+00,  2.189471780619174E+00,  7.928275307472613E-02, -5.883642924722931E-03, -6.970834619781640E-03,  1.037968615472807E-03,
2447690.500000000, A.D. 1989-Jun-13 00:00:00.0000,      56.184605, -2.202123194372041E+00,  2.154342854045479E+00,  8.446236203314460E-02, -5.773135406379765E-03, -7.080510011294489E-03,  1.033828706073979E-03,
2447695.500000000, A.D. 1989-Jun-18 00:00:00.0000,      56.184473, -2.230708659919352E+00,  2.118668964409444E+00,  8.962057632481837E-02, -5.660735797854971E-03, -7.188815044606970E-03,  1.029410509872562E-03,
2447700.500000000, A.D. 1989-Jun-23 00:00:00.0000,      56.184337, -2.258727405647238E+00,  2.082457035913233E+00,  9.475600092212179E-02, -5.546448174041456E-03, -7.295720672994004E-03,  1.024712587444081E-03,
2447705.500000000, A.D. 1989-Jun-28 00:00:00.0000,      56.184199, -2.286170002083230E+00,  2.045714139235435E+00,  9.986723357153623E-02, -5.430276811622496E-03, -7.401197350845897E-03,  1.019733488042773E-03,
2447710.500000000, A.D. 1989-Jul-03 00:00:00.0000,      56.184062, -2.313027041679732E+00,  2.008447494051600E+00,  1.049528647399125E-01, -5.312226206908124E-03, -7.505215023290725E-03,  1.014471750761524E-03,
2447715.500000000, A.D. 1989-Jul-08 00:00:00.0000,      56.183925, -2.339289139958660E+00,  1.970664471605782E+00,  1.100114775667237E-01, -5.192301094608130E-03, -7.607743116143419E-03,  1.008925905769822E-03,
2447720.500000000, A.D. 1989-Jul-13 00:00:00.0000,      56.183787, -2.364946936752660E+00,  1.932372597331841E+00,  1.150416478227114E-01, -5.070506467727150E-03, -7.708750526019291E-03,  1.003094475631168E-03,
2447725.500000000, A.D. 1989-Jul-18 00:00:00.0000,      56.183649, -2.389991097548969E+00,  1.893579553524357E+00,  1.200419438753108E-01, -4.946847598723050E-03, -7.808205610314094E-03,  9.969759766996530E-04,
2447730.500000000, A.D. 1989-Jul-23 00:00:00.0000,      56.183513, -2.414412314941779E+00,  1.854293182060592E+00,  1.250109266612779E-01, -4.821330061653788E-03, -7.906076176802787E-03,  9.905689206053659E-04,
2447735.500000000, A.D. 1989-Jul-28 00:00:00.0000,      56.183383, -2.438201310196324E+00,  1.814521487174775E+00,  1.299471496670124E-01, -4.693959754633324E-03, -8.002329473227040E-03,  9.838718158522340E-04,
2447740.500000000, A.D. 1989-Aug-02 00:00:00.0000,      56.183258, -2.461348834925915E+00,  1.774272638283066E+00,  1.348491589171657E-01, -4.564742922646157E-03, -8.096932177501431E-03,  9.768831695311127E-04,
2447745.500000000, A.D. 1989-Aug-07 00:00:00.0000,      56.183138, -2.483845672885299E+00,  1.733554972855938E+00,  1.397154929720628E-01, -4.433686181351495E-03, -8.189850388462957E-03,  9.696014891297978E-04,
2447750.500000000, A.D. 1989-Aug-12 00:00:00.0000,      56.183023, -2.505682641885969E+00,  1.692376999336319E+00,  1.445446829344082E-01, -4.300796542027093E-03, -8.281049616789028E-03,  9.620252844385703E-04,
2447755.500000000, A.D. 1989-Aug-17 00:00:00.0000,      56.182914, -2.526850595838531E+00,  1.650747400102807E+00,  1.493352524657874E-01, -4.166081437411311E-03, -8.370494776069003E-03,  9.541530695653023E-04,
2447760.500000000, A.D. 1989-Aug-22 00:00:00.0000,      56.182812, -2.547340426926196E+00,  1.608675034476724E+00,  1.540857178135425E-01, -4.029548748309180E-03, -8.458150174231870E-03,  9.459833650708368E-04,
2447765.500000000, A.D. 1989-Aug-27 00:00:00.0000,      56.182720, -2.567143067913304E+00,  1.566168941770865E+00,  1.587945878486329E-01, -3.891206831004133E-03, -8.543979505456881E-03,  9.375147002281327E-04,
2447770.500000000, A.D. 1989-Sep-01 00:00:00.0000,      56.182639, -2.586249494593042E+00,  1.523238344377331E+00,  1.634603641151064E-01, -3.751064545543574E-03, -8.627945842632408E-03,  9.287456154083372E-04,
2447775.500000000, A.D. 1989-Sep-06 00:00:00.0000,      56.182568, -2.604650728378918E+00,  1.479892650891644E+00,  1.680815408918280E-01, -3.609131284958618E-03, -8.710011630389185E-03,  9.196746645973768E-04,
2447780.500000000, A.D. 1989-Sep-11 00:00:00.0000,      56.182506, -2.622337839044754E+00,  1.436141459270212E+00,  1.726566052671246E-01, -3.465417005457464E-03, -8.790138678733848E-03,  9.103004180476295E-04,
2447785.500000000, A.D. 1989-Sep-16 00:00:00.0000,      56.182453, -2.639301947618127E+00,  1.391994560018049E+00,  1.771840372270368E-01, -3.319932257618709E-03, -8.868288157315449E-03,  9.006214650697249E-04,
2447790.500000000, A.D. 1989-Sep-21 00:00:00.0000,      56.182411, -2.655534229432324E+00,  1.347461939403507E+00,  1.816623097578925E-01, -3.172688218599508E-03, -8.944420590366051E-03,  8.906364169695932E-04,
2447795.500000000, A.D. 1989-Sep-26 00:00:00.0000,      56.182383, -2.671025917341873E+00,  1.302553782696503E+00,  1.860898889639369E-01, -3.023696725361459E-03, -9.018495852369204E-03,  8.803439101355323E-04,
2447800.500000000, A.D. 1989-Oct-01 00:00:00.0000,      56.182368, -2.685768305106737E+00,  1.257280477426436E+00,  1.904652342007823E-01, -2.872970308908106E-03, -9.090473164532507E-03,  8.697426092788835E-04,
2447805.500000000, A.D. 1989-Oct-06 00:00:00.0000,      56.182365, -2.699752750950259E+00,  1.211652616655517E+00,  1.947867982254475E-01, -2.720522229558329E-03, -9.160311092171428E-03,  8.588312108304432E-04,
2447810.500000000, A.D. 1989-Oct-11 00:00:00.0000,      56.182372, -2.712970681296361E+00,  1.165681002262681E+00,  1.990530273637797E-01, -2.566366513419093E-03, -9.227967543092465E-03,  8.476084464973519E-04,
2447815.500000000, A.D. 1989-Oct-16 00:00:00.0000,      56.182391, -2.725413594692709E+00,  1.119376648233239E+00,  2.032623616960932E-01, -2.410517990336757E-03, -9.293399766880187E-03,  8.360730869983484E-04,
